GLOBALSTAR M067 [+]     
1 32263U 07048A   24090.50034507 -.00000038  00000+0  43940-3 0  9998
2 32263  51.9712 254.1639 0001724 109.8926 285.2897 12.40641094754651
GLOBALSTAR M070 [+]     
1 32264U 07048B   24090.15368148 -.00000084  00000+0  11024-3 0  9990
2 32264  51.9767  41.1740 0000342 109.9058 264.3606 12.62288747758578
GLOBALSTAR M066 [+]     
1 32265U 07048C   24090.22694149 -.00000072  00000+0  17973-3 0  9998
2 32265  51.9663 262.9494 0001299  86.7610  84.5440 12.62258654760802
GLOBALSTAR M068 [-]     
1 32266U 07048D   24089.74150326 -.00000053  00000+0  28023-3 0  9995
2 32266  51.9873 217.0293 0000767 186.0438 321.2678 12.62782637761409
GLOBALSTAR M079 [+]     
1 37188U 10054A   24089.94914529 -.00000101  00000+0  18024-4 0  9994
2 37188  52.0048  52.1152 0000634  63.5438 332.5348 12.62267685620355
GLOBALSTAR M074 [+]     
1 37189U 10054B   24090.32074661 -.00000104  00000+0 -29713-5 0  9995
2 37189  52.0028  50.3760 0000396  78.9032  86.0638 12.62266367621073
GLOBALSTAR M076 [+]     
1 37190U 10054C   24090.34699132 -.00000094  00000+0  52452-4 0  9997
2 37190  52.0041  50.4265 0000902  95.5336  68.9164 12.62276011621087
GLOBALSTAR M077 [+]     
1 37191U 10054D   24089.91841760 -.00000078  00000+0  14181-3 0  9993
2 37191  52.0102   8.4624 0000588  84.6688 350.7029 12.62270687621048
